{
  "type": "FeatureCollection",
  "features": [
    {
      "type": "Feature",
      "properties": {
        "norad_id": 34492,
        "name": "IRIDIUM 33 DEB",
        "group": "iridium-33-debris",
        "lat": -16.957872513588104,
        "lon": -30.171237362097116,
        "alt_km": 904.6649990341521,
        "timestamp": "2025-12-21T22:41:41.844424+00:00",
        "meta_object_name": "IRIDIUM 33 DEB",
        "meta_object_id": "1997-051GH",
        "meta_epoch": "2025-12-19T10:45:18.347328",
        "meta_mean_motion": 14.25846982,
        "meta_eccentricity": 0.0188646,
        "meta_inclination": 86.4707,
        "meta_ra_of_asc_node": 331.9164,
        "meta_arg_of_pericenter": 216.3823,
        "meta_mean_anomaly": 273.3437,
        "meta_ephemeris_type": 0,
        "meta_classification_type": "U",
        "meta_norad_cat_id": 34492,
        "meta_element_set_no": 999,
        "meta_rev_at_epoch": 85154,
        "meta_bstar": 0.0022012,
        "meta_mean_motion_dot": 6.332e-05,
        "meta_mean_motion_ddot": 0,
        "tle_line1": "1 34492U 97051GH  25353.44812902  .00006332  00000+0  22012-2 0  9994",
        "tle_line2": "2 34492  86.4707 331.9164 0188646 216.3823 273.3437 14.25846982851542"
      },
      "geometry": {
        "type": "Point",
        "coordinates": [
          -30.171237362097116,
          -16.957872513588104
        ]
      }
    },
    {
      "type": "Feature",
      "properties": {
        "norad_id": 34497,
        "name": "IRIDIUM 33 DEB",
        "group": "iridium-33-debris",
        "lat": -84.42942373487739,
        "lon": 6.588663598334787,
        "alt_km": 761.7687124648,
        "timestamp": "2025-12-21T22:41:41.844435+00:00",
        "meta_object_name": "IRIDIUM 33 DEB",
        "meta_object_id": "1997-051GN",
        "meta_epoch": "2025-12-21T03:02:18.965760",
        "meta_mean_motion": 14.27475874,
        "meta_eccentricity": 0.00780469,
        "meta_inclination": 86.2771,
        "meta_ra_of_asc_node": 48.8187,
        "meta_arg_of_pericenter": 312.1215,
        "meta_mean_anomaly": 76.3389,
        "meta_ephemeris_type": 0,
        "meta_classification_type": "U",
        "meta_norad_cat_id": 34497,
        "meta_element_set_no": 999,
        "meta_rev_at_epoch": 87003,
        "meta_bstar": 0.00042941712,
        "meta_mean_motion_dot": 1.107e-05,
        "meta_mean_motion_ddot": 0,
        "tle_line1": "1 34497U 97051GN  25355.12660840  .00001107  00000+0  42942-3 0  9998",
        "tle_line2": "2 34497  86.2771  48.8187 0078046 312.1215  76.3389 14.27475874870039"
      },
      "geometry": {
        "type": "Point",
        "coordinates": [
          6.588663598334787,
          -84.42942373487739
        ]
      }
    },
    {
      "type": "Feature",
      "properties": {
        "norad_id": 34508,
        "name": "IRIDIUM 33 DEB",
        "group": "iridium-33-debris",
        "lat": 75.37204075398412,
        "lon": 112.81368140595353,
        "alt_km": 737.9453260065156,
        "timestamp": "2025-12-21T22:41:41.844445+00:00",
        "meta_object_name": "IRIDIUM 33 DEB",
        "meta_object_id": "1997-051GZ",
        "meta_epoch": "2025-12-21T00:38:21.315840",
        "meta_mean_motion": 14.38484044,
        "meta_eccentricity": 0.00666098,
        "meta_inclination": 86.371,
        "meta_ra_of_asc_node": 99.1304,
        "meta_arg_of_pericenter": 146.3518,
        "meta_mean_anomaly": 214.1938,
        "meta_ephemeris_type": 0,
        "meta_classification_type": "U",
        "meta_norad_cat_id": 34508,
        "meta_element_set_no": 999,
        "meta_rev_at_epoch": 87428,
        "meta_bstar": 0.00080829336,
        "meta_mean_motion_dot": 2.552e-05,
        "meta_mean_motion_ddot": 0,
        "tle_line1": "1 34508U 97051GZ  25355.02663560  .00002552  00000+0  80829-3 0  9993",
        "tle_line2": "2 34508  86.3710  99.1304 0066609 146.3518 214.1938 14.38484044874285"
      },
      "geometry": {
        "type": "Point",
        "coordinates": [
          112.81368140595353,
          75.37204075398412
        ]
      }
    },
    {
      "type": "Feature",
      "properties": {
        "norad_id": 34521,
        "name": "IRIDIUM 33 DEB",
        "group": "iridium-33-debris",
        "lat": -0.41377739613672465,
        "lon": 26.468496169432576,
        "alt_km": 687.0900477565892,
        "timestamp": "2025-12-21T22:41:41.844455+00:00",
        "meta_object_name": "IRIDIUM 33 DEB",
        "meta_object_id": "1997-051HN",
        "meta_epoch": "2025-12-21T09:34:06.570624",
        "meta_mean_motion": 14.63431866,
        "meta_eccentricity": 0.00026113,
        "meta_inclination": 86.3787,
        "meta_ra_of_asc_node": 26.7355,
        "meta_arg_of_pericenter": 178.2335,
        "meta_mean_anomaly": 181.8887,
        "meta_ephemeris_type": 0,
        "meta_classification_type": "U",
        "meta_norad_cat_id": 34521,
        "meta_element_set_no": 999,
        "meta_rev_at_epoch": 88599,
        "meta_bstar": 0.00062299152,
        "meta_mean_motion_dot": 3.244e-05,
        "meta_mean_motion_ddot": 0,
        "tle_line1": "1 34521U 97051HN  25355.39868716  .00003244  00000+0  62299-3 0  9998",
        "tle_line2": "2 34521  86.3787  26.7355 0002611 178.2335 181.8887 14.63431866885995"
      },
      "geometry": {
        "type": "Point",
        "coordinates": [
          26.468496169432576,
          -0.41377739613672465
        ]
      }
    },
    {
      "type": "Feature",
      "properties": {
        "norad_id": 34525,
        "name": "IRIDIUM 33 DEB",
        "group": "iridium-33-debris",
        "lat": -40.7813593922286,
        "lon": -133.94842948207005,
        "alt_km": 759.3561995382825,
        "timestamp": "2025-12-21T22:41:41.844465+00:00",
        "meta_object_name": "IRIDIUM 33 DEB",
        "meta_object_id": "1997-051HS",
        "meta_epoch": "2025-12-21T03:29:36.485088",
        "meta_mean_motion": 14.42923507,
        "meta_eccentricity": 0.00064437,
        "meta_inclination": 86.372,
        "meta_ra_of_asc_node": 43.2557,
        "meta_arg_of_pericenter": 76.0018,
        "meta_mean_anomaly": 311.4457,
        "meta_ephemeris_type": 0,
        "meta_classification_type": "U",
        "meta_norad_cat_id": 34525,
        "meta_element_set_no": 999,
        "meta_rev_at_epoch": 88209,
        "meta_bstar": 0.00023924914,
        "meta_mean_motion_dot": 8.19e-06,
        "meta_mean_motion_ddot": 0,
        "tle_line1": "1 34525U 97051HS  25355.14556117  .00000819  00000+0  23925-3 0  9992",
        "tle_line2": "2 34525  86.3720  43.2557 0006443  76.0018 311.4457 14.42923507882091"
      },
      "geometry": {
        "type": "Point",
        "coordinates": [
          -133.94842948207005,
          -40.7813593922286
        ]
      }
    },
    {
      "type": "Feature",
      "properties": {
        "norad_id": 34529,
        "name": "IRIDIUM 33 DEB",
        "group": "iridium-33-debris",
        "lat": 39.28430128660548,
        "lon": 34.46936102116514,
        "alt_km": 754.9684562348193,
        "timestamp": "2025-12-21T22:41:41.844475+00:00",
        "meta_object_name": "IRIDIUM 33 DEB",
        "meta_object_id": "1997-051HW",
        "meta_epoch": "2025-12-21T09:10:35.665536",
        "meta_mean_motion": 14.4062226,
        "meta_eccentricity": 0.00057974,
        "meta_inclination": 86.3634,
        "meta_ra_of_asc_node": 31.7273,
        "meta_arg_of_pericenter": 151.7059,
        "meta_mean_anomaly": 208.4457,
        "meta_ephemeris_type": 0,
        "meta_classification_type": "U",
        "meta_norad_cat_id": 34529,
        "meta_element_set_no": 999,
        "meta_rev_at_epoch": 88266,
        "meta_bstar": 9.6722833e-05,
        "meta_mean_motion_dot": 3.28e-06,
        "meta_mean_motion_ddot": 0,
        "tle_line1": "1 34529U 97051HW  25355.38235724  .00000328  00000+0  96723-4 0  9992",
        "tle_line2": "2 34529  86.3634  31.7273 0005797 151.7059 208.4457 14.40622260882661"
      },
      "geometry": {
        "type": "Point",
        "coordinates": [
          34.46936102116514,
          39.28430128660548
        ]
      }
    },
    {
      "type": "Feature",
      "properties": {
        "norad_id": 34538,
        "name": "IRIDIUM 33 DEB",
        "group": "iridium-33-debris",
        "lat": -55.18955394046252,
        "lon": -3.8518811573062934,
        "alt_km": 734.1003880850403,
        "timestamp": "2025-12-21T22:41:41.844485+00:00",
        "meta_object_name": "IRIDIUM 33 DEB",
        "meta_object_id": "1997-051JF",
        "meta_epoch": "2025-12-21T12:00:19.123776",
        "meta_mean_motion": 14.42695029,
        "meta_eccentricity": 0.00320877,
        "meta_inclination": 86.2759,
        "meta_ra_of_asc_node": 1.7183,
        "meta_arg_of_pericenter": 297.7157,
        "meta_mean_anomaly": 215.1252,
        "meta_ephemeris_type": 0,
        "meta_classification_type": "U",
        "meta_norad_cat_id": 34538,
        "meta_element_set_no": 999,
        "meta_rev_at_epoch": 87882,
        "meta_bstar": 0.00071835416,
        "meta_mean_motion_dot": 2.423e-05,
        "meta_mean_motion_ddot": 0,
        "tle_line1": "1 34538U 97051JF  25355.50022134  .00002423  00000+0  71835-3 0  9999",
        "tle_line2": "2 34538  86.2759   1.7183 0032087 297.7157 215.1252 14.42695029878823"
      },
      "geometry": {
        "type": "Point",
        "coordinates": [
          -3.8518811573062934,
          -55.18955394046252
        ]
      }
    }
  ]
}